ONEWEB-0159             
1 48062U 21025W   25306.41024318  .00000026  00000+0  37253-4 0  9990
2 48062  87.9043   5.2729 0001888  91.9931 268.1414 13.13468313223832
ONEWEB-0164             
1 48063U 21025X   25306.46779441  .00000377  00000+0  99638-3 0  9993
2 48063  87.9031   5.2692 0001856 101.7035 258.4302 13.13472440223822
ONEWEB-0167             
1 48064U 21025Y   25306.41956125 -.00000243  00000+0 -69991-3 0  9998
2 48064  87.9025   5.3091 0002599  97.9206 262.2218 13.13469885223807
ONEWEB-0166             
1 48065U 21025Z   25306.44241192 -.00000016  00000+0 -79186-4 0  9999
2 48065  87.9032   5.2579 0001785  93.1351 266.9983 13.13470164223881
ONEWEB-0151             
1 48066U 21025AA  25306.44409351  .00000076  00000+0  17317-3 0  9994
2 48066  87.9033   5.2832 0002015 100.0623 260.0733 13.13473206223824
ONEWEB-0170             
1 48067U 21025AB  25306.45257378  .00000173  00000+0  43937-3 0  9991
2 48067  87.9030   5.2887 0002117 111.1566 248.9790 13.13469585223782
ONEWEB-0168             
1 48068U 21025AC  25306.43733558 -.00000162  00000+0 -47759-3 0  9995
2 48068  87.9033   5.2736 0001964  93.4614 266.6739 13.13469716223791
ONEWEB-0173             
1 48069U 21025AD  25306.42885929 -.00000251  00000+0 -72172-3 0  9991
2 48069  87.9033   5.2830 0002201  92.3208 267.8173 13.13468950224031
